{"fetched_at":"2026-03-30T06:02:59Z","count":15439,"tles":[{"name":"STARLINK-11327 [DTC]","line1":"1 61695U 24195J   26087.84552397 -.00003091  00000+0 -20680-4 0  9998","line2":"2 61695  53.1590 291.7233 0000654  77.7710 282.3381 15.69700964 82041","category":"Starlink"}]}