{
  "norad_id": 61695,
  "name": "STARLINK-11327 [DTC]",
  "history": [
    {
      "epoch": "2026-03-28T20:17:33.271008Z",
      "apogee_km": 360.1932660973962,
      "perigee_km": 359.31195013665456,
      "latitude_deg": -5.810314124846182e-06,
      "longitude_deg": 161.07454411264507,
      "height_km": 360.57342185380105,
      "semi_major_axis_km": 6737.889608117025,
      "eccentricity": 6.54e-05,
      "inclination_deg": 53.159,
      "raan_deg": 291.7233,
      "arg_perigee_deg": 77.771,
      "mean_anomaly_deg": 282.3381,
      "mean_motion_rev_day": 15.69700964
    }
  ]
}